OBJECT_NAME,OBJECT_ID,EPOCH,MEAN_MOTION,ECCENTRICITY,INCLINATION,RA_OF_ASC_NODE,ARG_OF_PERICENTER,MEAN_ANOMALY,EPHEMERIS_TYPE,CLASSIFICATION_TYPE,NORAD_CAT_ID,ELEMENT_SET_NO,REV_AT_EPOCH,BSTAR,MEAN_MOTION_DOT,MEAN_MOTION_DDOT
STARLINK-35017,2025-184V,2026-07-10T02:24:32.201280,15.05664186,.0000784,97.2849,241.5112,120.5123,239.6182,0,U,65292,999,4967,.2988943E-3,.426E-4,0
STARLINK-34951,2025-184W,2026-07-10T03:08:23.864064,15.05690023,.00017535,97.2830,241.4719,124.9654,235.1739,0,U,65293,999,4972,.6244483E-3,.8974E-4,0
STARLINK-34613,2025-184X,2026-07-10T01:48:38.672640,15.05658016,.00017901,97.2835,241.3912,99.7566,260.3864,0,U,65294,999,4971,.11499798E-3,.1604E-4,0
STARLINK-34834,2025-184Y,2026-07-10T02:16:32.862720,15.05671625,.0000522,97.2842,241.3654,108.8208,251.3076,0,U,65295,999,4971,.26817622E-3,.3817E-4,0
STARLINK-34872,2025-184Z,2026-07-10T02:00:35.005536,15.05664777,.00019716,97.2847,241.3800,139.2480,220.8896,0,U,65296,999,4971,.27036928E-4,.334E-5,0
DRESDEN,2025-185A,2026-07-10T06:33:06.432768,14.79840398,.00103528,97.9638,274.3847,24.2417,335.9280,0,U,65297,999,4724,.7127774E-3,.5326E-4,0
FOURIER,2025-185B,2026-07-10T04:54:26.908704,14.79822969,.00102998,97.9661,274.3807,20.6563,339.5063,0,U,65298,999,4724,.76653011E-3,.5729E-4,0
STARK,2025-185C,2026-07-10T01:59:05.484768,14.81886522,.00086387,97.9646,274.5466,21.6045,338.5531,0,U,65299,999,4724,.15164711E-3,.1147E-4,0
BASIL,2025-185E,2026-07-09T15:54:10.187424,14.79786791,.00105036,97.9663,273.8519,20.8978,339.2661,0,U,65301,999,4716,.71642195E-3,.5347E-4,0
DOJO,2025-185F,2026-07-10T04:51:28.943712,14.79783553,.00102145,97.9656,274.3862,17.1775,342.9780,0,U,65302,999,4724,.81490156E-3,.6089E-4,0
HULIANWANG DIGUI-73,2025-187A,2026-07-10T07:01:22.590912,13.29323315,.00001866,50.0047,123.0133,289.8006,70.2846,0,U,65305,999,4277,.23347483E-4,-.113E-5,0
HULIANWANG DIGUI-74,2025-187B,2026-07-10T06:37:26.224608,13.29321354,.00002015,50.0090,123.0331,283.3398,76.7452,0,U,65306,999,4277,.32005406E-4,-.109E-5,0
HULIANWANG DIGUI-75,2025-187C,2026-07-10T06:13:24.686400,13.29322605,.00002063,50.0082,122.9271,291.3328,68.7522,0,U,65307,999,4277,.38572537E-4,-.106E-5,0
HULIANWANG DIGUI-76,2025-187D,2026-07-10T07:37:43.300128,13.29323585,.00001343,50.0006,123.0383,307.6084,52.4776,0,U,65308,999,4277,.45233112E-4,-.103E-5,0
HULIANWANG DIGUI-77,2025-187E,2026-07-10T07:25:32.508192,13.29323523,.00001611,50.0040,123.0810,219.0870,140.9991,0,U,65309,999,4277,.40905097E-4,-.105E-5,0
HULIANWANG DIGUI-78,2025-187F,2026-07-10T06:25:33.148992,13.29322529,.00001816,50.0106,123.0314,288.6312,71.4540,0,U,65310,999,4277,.27546471E-4,-.111E-5,0
HULIANWANG DIGUI-79,2025-187G,2026-07-10T07:49:37.449696,13.29319333,.0000243,50.0036,123.1552,291.5671,68.5175,0,U,65311,999,4277,.36097534E-4,-.107E-5,0
HULIANWANG DIGUI-80,2025-187H,2026-07-10T07:13:32.053152,13.29322691,.00001615,50.0026,123.0020,220.4780,139.6080,0,U,65312,999,4277,.42801376E-4,-.104E-5,0
HULIANWANG DIGUI-81,2025-187J,2026-07-10T06:49:34.064256,13.29319472,.00001969,50.0066,123.0170,283.0965,76.9885,0,U,65313,999,4278,.19689439E-4,-.115E-5,0
PELICAN-3,2025-188A,2026-07-10T03:59:46.596192,15.40988618,.00017162,97.1983,266.9739,106.3850,253.7585,0,U,65315,999,4885,.1483582E-3,.6031E-4,0
PELICAN-4,2025-188B,2026-07-10T04:24:51.962400,15.40957945,.00008706,97.1997,267.1461,109.1636,250.9706,0,U,65316,999,4885,.14596694E-3,.5927E-4,0
NAOS,2025-188C,2026-07-10T06:46:26.546016,15.38654214,.00007219,97.2027,266.1950,46.5046,313.6259,0,U,65317,999,4881,.20743304E-3,.784E-4,0
CAPELLA-16 (ACADIA-6),2025-188D,2026-07-08T22:12:46.641312,14.94003832,.00052003,97.7375,264.7514,152.8898,207.2595,0,U,65318,999,4716,.3158809E-3,.3312E-4,0
FFLY03,2025-188E,2026-07-10T06:06:30.444192,14.92821310,.00089894,97.7315,265.9744,36.8648,323.3188,0,U,65319,999,4735,.52949834E-4,.492E-5,0
FFLY01,2025-188F,2026-07-10T07:09:54.543744,14.92705929,.00111984,97.7371,266.1438,98.0579,262.1911,0,U,65320,999,4735,.98498388E-4,.961E-5,0
LEAP-1,2025-188G,2026-07-10T04:48:42.641856,14.91634756,.00044006,97.7359,265.1610,121.1917,238.9733,0,U,65321,999,4728,.14927311E-3,.1444E-4,0
FFLY02,2025-188H,2026-07-10T06:40:43.705632,14.92717763,.00137285,97.7361,266.1216,53.0761,307.1714,0,U,65322,999,4735,.9496766E-4,.925E-5,0
STARLINK-34899,2025-189A,2026-07-09T23:46:50.771424,15.31728646,.00010433,53.1608,357.8003,64.0593,296.0516,0,U,65323,999,4984,.55149943E-3,.16802E-3,0
STARLINK-34196,2025-189B,2026-07-09T11:02:12.164928,15.31712086,.00012071,53.1616,0.1934,81.9882,278.1257,0,U,65324,999,4971,.4523188E-3,.13702E-3,0
STARLINK-34911,2025-189C,2026-07-08T19:10:39.741312,15.34410848,.00004364,53.1602,3.8899,74.3788,285.7263,0,U,65325,999,4965,.30956037E-3,.10101E-3,0
