STARLINK-35017          
1 65292U 25184V   26191.10037270  .00004260  00000+0  29889-3 0  9993
2 65292  97.2849 241.5112 0000784 120.5123 239.6182 15.05664186 49673
STARLINK-34951          
1 65293U 25184W   26191.13083176  .00008974  00000+0  62445-3 0  9994
2 65293  97.2830 241.4719 0001753 124.9654 235.1739 15.05690023 49724
STARLINK-34613          
1 65294U 25184X   26191.07544760  .00001604  00000+0  11500-3 0  9998
2 65294  97.2835 241.3912 0001790  99.7566 260.3864 15.05658016 49710
STARLINK-34834          
1 65295U 25184Y   26191.09482480  .00003817  00000+0  26818-3 0  9997
2 65295  97.2842 241.3654 0000522 108.8208 251.3076 15.05671625 49715
STARLINK-34872          
1 65296U 25184Z   26191.08373849  .00000334  00000+0  27037-4 0  9991
2 65296  97.2847 241.3800 0001971 139.2480 220.8896 15.05664777 49714
DRESDEN                 
1 65297U 25185A   26191.27299112  .00005326  00000+0  71278-3 0  9995
2 65297  97.9638 274.3847 0010352  24.2417 335.9280 14.79840398 47249
FOURIER                 
1 65298U 25185B   26191.20447811  .00005729  00000+0  76653-3 0  9999
2 65298  97.9661 274.3807 0010299  20.6563 339.5063 14.79822969 47247
STARK                   
1 65299U 25185C   26191.08270237  .00001147  00000+0  15165-3 0  9993
2 65299  97.9646 274.5466 0008638  21.6045 338.5531 14.81886522 47241
BASIL                   
1 65301U 25185E   26190.66261791  .00005347  00000+0  71642-3 0  9993
2 65301  97.9663 273.8519 0010503  20.8978 339.2661 14.79786791 47162
DOJO                    
1 65302U 25185F   26191.20241833  .00006089  00000+0  81490-3 0  9996
2 65302  97.9656 274.3862 0010214  17.1775 342.9780 14.79783553 47240
HULIANWANG DIGUI-73     
1 65305U 25187A   26191.29262258 -.00000113  00000+0  23347-4 0  9995
2 65305  50.0047 123.0133 0000186 289.8006  70.2846 13.29323315 42777
HULIANWANG DIGUI-74     
1 65306U 25187B   26191.27599797 -.00000109  00000+0  32005-4 0  9991
2 65306  50.0090 123.0331 0000201 283.3398  76.7452 13.29321354 42772
HULIANWANG DIGUI-75     
1 65307U 25187C   26191.25931350 -.00000106  00000+0  38573-4 0  9998
2 65307  50.0082 122.9271 0000206 291.3328  68.7522 13.29322605 42771
HULIANWANG DIGUI-76     
1 65308U 25187D   26191.31786227 -.00000103  00000+0  45233-4 0  9995
2 65308  50.0006 123.0383 0000134 307.6084  52.4776 13.29323585 42773
HULIANWANG DIGUI-77     
1 65309U 25187E   26191.30940403 -.00000105  00000+0  40905-4 0  9996
2 65309  50.0040 123.0810 0000161 219.0870 140.9991 13.29323523 42770
HULIANWANG DIGUI-78     
1 65310U 25187F   26191.26774478 -.00000111  00000+0  27546-4 0  9993
2 65310  50.0106 123.0314 0000181 288.6312  71.4540 13.29322529 42772
HULIANWANG DIGUI-79     
1 65311U 25187G   26191.32612789 -.00000107  00000+0  36098-4 0  9994
2 65311  50.0036 123.1552 0000243 291.5671  68.5175 13.29319333 42770
HULIANWANG DIGUI-80     
1 65312U 25187H   26191.30106543 -.00000104  00000+0  42801-4 0  9995
2 65312  50.0026 123.0020 0000161 220.4780 139.6080 13.29322691 42776
HULIANWANG DIGUI-81     
1 65313U 25187J   26191.28442204 -.00000115  00000+0  19689-4 0  9990
2 65313  50.0066 123.0170 0000196 283.0965  76.9885 13.29319472 42785
PELICAN-3               
1 65315U 25188A   26191.16651153  .00006031  00000+0  14836-3 0  9995
2 65315  97.1983 266.9739 0001716 106.3850 253.7585 15.40988618 48859
PELICAN-4               
1 65316U 25188B   26191.18393475  .00005927  00000+0  14597-3 0  9995
2 65316  97.1997 267.1461 0000870 109.1636 250.9706 15.40957945 48856
NAOS                    
1 65317U 25188C   26191.28225169  .00007840  00000+0  20743-3 0  9997
2 65317  97.2027 266.1950 0000721  46.5046 313.6259 15.38654214 48814
CAPELLA-16 (ACADIA-6)   
1 65318U 25188D   26189.92553983  .00003312  00000+0  31588-3 0  9993
2 65318  97.7375 264.7514 0005200 152.8898 207.2595 14.94003832 47162
FFLY03                  
1 65319U 25188E   26191.25451903  .00000492  00000+0  52950-4 0  9995
2 65319  97.7315 265.9744 0008989  36.8648 323.3188 14.92821310 47352
FFLY01                  
1 65320U 25188F   26191.29854796  .00000961  00000+0  98498-4 0  9996
2 65320  97.7371 266.1438 0011198  98.0579 262.1911 14.92705929 47359
LEAP-1                  
1 65321U 25188G   26191.20049354  .00001444  00000+0  14927-3 0  9995
2 65321  97.7359 265.1610 0004400 121.1917 238.9733 14.91634756 47282
FFLY02                  
1 65322U 25188H   26191.27828363  .00000925  00000+0  94968-4 0  9995
2 65322  97.7361 266.1216 0013728  53.0761 307.1714 14.92717763 47359
STARLINK-34899          
1 65323U 25189A   26190.99086541  .00016802  00000+0  55150-3 0  9999
2 65323  53.1608 357.8003 0001043  64.0593 296.0516 15.31728646 49842
STARLINK-34196          
1 65324U 25189B   26190.45986302  .00013702  00000+0  45232-3 0  9991
2 65324  53.1616   0.1934 0001207  81.9882 278.1257 15.31712086 49714
STARLINK-34911          
1 65325U 25189C   26189.79907108  .00010101  00000+0  30956-3 0  9991
2 65325  53.1602   3.8899 0000436  74.3788 285.7263 15.34410848 49652
